NORAD_CAT_ID,OBJECT_NAME,OBJECT_TYPE,EPOCH,MEAN_MOTION,ECCENTRICITY,INCLINATION,RA_OF_ASC_NODE,ARG_OF_PERICENTER,MEAN_ANOMALY,BSTAR,MEAN_MOTION_DOT,MEAN_MOTION_DDOT,TLE_LINE0,TLE_LINE1,TLE_LINE2,SEMIMAJOR_AXIS,PERIOD,APOGEE,PERIGEE,DECAYED
52991.0,STARLINK-4285,PAYLOAD,2023-11-08 18:14:41,15.08875856,0.0001326,53.2169,328.5852,82.0643,278.0499,0.0007799,0.00012158,0.0,0 STARLINK-4285,1 52991U 22076F   23312.76019687  .00012158  00000-0  77990-3 0  9990,2 52991  53.2169 328.5852 0001326  82.0643 278.0499 15.08875856 74566,6917.771,95.435,540.553,538.718,0.0
52991.0,STARLINK-4285,PAYLOAD,2023-11-09 10:08:31,15.08878044,0.0001343,53.2165,325.6104,85.6372,274.4774,0.00088942,0.0001391,0.0,0 STARLINK-4285,1 52991U 22076F   23313.42258684  .00013910  00000-0  88942-3 0  9992,2 52991  53.2165 325.6104 0001343  85.6372 274.4774 15.08878044 74666,6917.764,95.435,540.558,538.7,0.0
52991.0,STARLINK-4285,PAYLOAD,2023-11-09 18:05:27,15.0885563,0.00015,53.2164,324.1245,86.9347,273.1816,0.00067313,0.00010446,0.0,0 STARLINK-4285,1 52991U 22076F   23313.75378928  .00010446  00000-0  67313-3 0  9992,2 52991  53.2164 324.1245 0001500  86.9347 273.1816 15.08855630 74711,6917.833,95.437,540.735,538.66,0.0
52991.0,STARLINK-4285,PAYLOAD,2023-11-10 09:59:18,15.08850587,0.0001437,53.2158,321.1507,91.8526,268.263,0.0015748,0.00024871,0.0,0 STARLINK-4285,1 52991U 22076F   23314.41618972  .00024871  00000-0  15748-2 0  9993,2 52991  53.2158 321.1507 0001437  91.8526 268.2630 15.08850587 74811,6917.848,95.437,540.707,538.719,0.0
52991.0,STARLINK-4285,PAYLOAD,2023-11-10 17:56:14,15.0884266,0.0001719,53.2162,319.6634,83.8743,276.2445,0.0011321,0.00017777,0.0,0 STARLINK-4285,1 52991U 22076F   23314.74739428  .00017777  00000-0  11321-2 0  9999,2 52991  53.2162 319.6634 0001719  83.8743 276.2445 15.08842660 74865,6917.872,95.437,540.926,538.548,0.0
52991.0,STARLINK-4285,PAYLOAD,2023-11-11 06:39:20,15.08840438,0.0001725,53.2165,317.2835,87.8883,272.2306,0.00089681,0.00014014,0.0,0 STARLINK-4285,1 52991U 22076F   23315.27731572  .00014014  00000-0  89681-3 0  9996,2 52991  53.2165 317.2835 0001725  87.8883 272.2306 15.08840438 74943,6917.879,95.438,540.937,538.551,0.0
52991.0,STARLINK-4285,PAYLOAD,2023-11-11 17:47:02,15.08844788,0.0001713,53.2162,315.2027,83.6405,276.4782,0.0006314,9.776e-05,0.0,0 STARLINK-4285,1 52991U 22076F   23315.74099614  .00009776  00000-0  63140-3 0  9993,2 52991  53.2162 315.2027 0001713  83.6405 276.4782 15.08844788 74544,6917.866,95.437,540.916,538.546,0.0
52991.0,STARLINK-4285,PAYLOAD,2023-11-12 03:19:20,15.08845644,0.0001718,53.2158,313.4181,84.8872,275.2316,0.00043263,6.605e-05,0.0,0 STARLINK-4285,1 52991U 22076F   23316.13843535  .00006605  00000-0  43263-3 0  9998,2 52991  53.2158 313.4181 0001718  84.8872 275.2316 15.08845644 75077,6917.863,95.437,540.917,538.54,0.0
52991.0,STARLINK-4285,PAYLOAD,2023-11-12 06:30:07,15.08847104,0.000173,53.2167,312.8233,85.3611,274.7578,0.000415,6.324e-05,0.0,0 STARLINK-4285,1 52991U 22076F   23316.27091478  .00006324  00000-0  41500-3 0  9994,2 52991  53.2167 312.8233 0001730  85.3611 274.7578 15.08847104 74626,6917.859,95.437,540.92,538.527,0.0
52991.0,STARLINK-4285,PAYLOAD,2023-11-13 03:10:07,15.08844137,0.0001705,53.2166,308.9569,89.9238,270.1949,0.00016129,2.28e-05,0.0,0 STARLINK-4285,1 52991U 22076F   23317.13203369  .00002280  00000-0  16129-3 0  9990,2 52991  53.2166 308.9569 0001705  89.9238 270.1949 15.08844137 75222,6917.868,95.437,540.912,538.553,0.0
52991.0,STARLINK-4285,PAYLOAD,2023-11-13 09:31:39,15.08851686,0.0001548,53.2166,307.7664,93.377,266.7399,0.00029853,4.468e-05,0.0,0 STARLINK-4285,1 52991U 22076F   23317.39699058  .00004468  00000-0  29853-3 0  9990,2 52991  53.2166 307.7664 0001548  93.3770 266.7399 15.08851686 74798,6917.845,95.437,540.781,538.639,0.0
52991.0,STARLINK-4285,PAYLOAD,2023-11-14 04:36:17,15.08843939,0.0001549,53.217,304.1957,94.0749,266.042,8.0076e-05,9.87e-06,0.0,0 STARLINK-4285,1 52991U 22076F   23318.19187109  .00000987  00000-0  80076-4 0  9995,2 52991  53.2170 304.1957 0001549  94.0749 266.0420 15.08843939 75380,6917.868,95.437,540.805,538.662,0.0
52991.0,STARLINK-4285,PAYLOAD,2023-11-14 15:43:59,15.08847122,0.0001616,53.2172,302.1142,111.3001,248.8163,8.9484e-05,1.137e-05,0.0,0 STARLINK-4285,1 52991U 22076F   23318.65554816  .00001137  00000-0  89484-4 0  9999,2 52991  53.2172 302.1142 0001616 111.3001 248.8163 15.08847122 74980,6917.859,95.437,540.842,538.606,0.0
52991.0,STARLINK-4285,PAYLOAD,2023-11-15 02:51:41,15.08837273,0.0001846,53.2188,300.0404,107.3109,252.8085,-4.9636e-05,-1.078e-05,0.0,0 STARLINK-4285,1 52991U 22076F   23319.11923598 -.00001078  00000-0 -49636-4 0  9999,2 52991  53.2188 300.0404 0001846 107.3109 252.8085 15.08837273 75529,6917.889,95.438,541.031,538.477,0.0
52991.0,STARLINK-4285,PAYLOAD,2023-11-15 07:37:51,15.08836506,0.0001761,53.2191,299.1486,104.2039,255.9149,-5.7311e-05,-1.2e-05,0.0,0 STARLINK-4285,1 52991U 22076F   23319.31795602 -.00001200  00000-0 -57311-4 0  9990,2 52991  53.2191 299.1486 0001761 104.2039 255.9149 15.08836506 75089,6917.891,95.438,540.974,538.538,0.0
52991.0,STARLINK-4285,PAYLOAD,2023-11-15 15:34:47,15.08834181,0.0001621,53.2183,297.6562,89.4274,270.6904,-5.7932e-05,-1.21e-05,0.0,0 STARLINK-4285,1 52991U 22076F   23319.64915760 -.00001210  00000-0 -57932-4 0  9995,2 52991  53.2183 297.6562 0001621  89.4274 270.6904 15.08834181 75134,6917.898,95.438,540.885,538.642,0.0
52991.0,STARLINK-4285,PAYLOAD,2023-11-16 07:28:38,15.08837044,0.0001799,53.2185,294.6843,108.5096,251.6091,5.5548e-05,5.96e-06,0.0,0 STARLINK-4285,1 52991U 22076F   23320.31155959  .00000596  00000-0  55548-4 0  9992,2 52991  53.2185 294.6843 0001799 108.5096 251.6091 15.08837044 75706,6917.889,95.438,540.999,538.51,0.0
52991.0,STARLINK-4285,PAYLOAD,2023-11-16 15:25:34,15.0883601,0.0001683,53.2186,293.1965,93.8908,266.2277,0.0001916,2.762e-05,0.0,0 STARLINK-4285,1 52991U 22076F   23320.64276198  .00002762  00000-0  19160-3 0  9993,2 52991  53.2186 293.1965 0001683  93.8908 266.2277 15.08836010 75289,6917.893,95.438,540.922,538.593,0.0
52991.0,STARLINK-4285,PAYLOAD,2023-11-17 07:19:25,15.08843224,0.000162,53.2181,290.2221,83.8794,276.2383,0.0002134,3.11e-05,0.0,0 STARLINK-4285,1 52991U 22076F   23321.30516006  .00003110  00000-0  21340-3 0  9993,2 52991  53.2181 290.2221 0001620  83.8794 276.2383 15.08843224 75385,6917.871,95.437,540.856,538.615,0.0
52991.0,STARLINK-4285,PAYLOAD,2023-11-17 15:16:21,15.08840745,0.0001617,53.2182,288.7372,86.1698,273.9479,0.00015236,2.138e-05,0.0,0 STARLINK-4285,1 52991U 22076F   23321.63636169  .00002138  00000-0  15236-3 0  9998,2 52991  53.2182 288.7372 0001617  86.1698 273.9479 15.08840745 75903,6917.878,95.438,540.862,538.624,0.0
52991.0,STARLINK-4285,PAYLOAD,2023-11-18 02:24:02,15.08855622,0.0001818,53.2184,286.6557,83.551,276.5689,-0.00025504,-4.347e-05,0.0,0 STARLINK-4285,1 52991U 22076F   23322.10003260 -.00004347  00000-0 -25504-3 0  9996,2 52991  53.2184 286.6557 0001818  83.5510 276.5689 15.08855622 75973,6917.833,95.437,540.955,538.44,0.0
52991.0,STARLINK-4285,PAYLOAD,2023-11-18 05:34:49,15.08845954,0.0001543,53.2177,286.0591,89.2404,270.8765,0.00014779,2.065e-05,0.0,0 STARLINK-4285,1 52991U 22076F   23322.23251881  .00002065  00000-0  14779-3 0  9999,2 52991  53.2177 286.0591 0001543  89.2404 270.8765 15.08845954 75998,6917.862,95.437,540.795,538.66,0.0
52991.0,STARLINK-4285,PAYLOAD,2023-11-18 21:28:41,15.08840873,0.0001583,53.2172,283.0859,88.1361,271.9813,6.6019e-05,7.63e-06,0.0,0 STARLINK-4285,1 52991U 22076F   23322.89492111  .00000763  00000-0  66019-4 0  9992,2 52991  53.2172 283.0859 0001583  88.1361 271.9813 15.08840873 75622,6917.878,95.437,540.838,538.648,0.0
52991.0,STARLINK-4285,PAYLOAD,2023-11-19 03:50:13,15.08846558,0.0001414,53.2176,281.8961,91.6075,268.5079,5.7766e-05,6.32e-06,0.0,0 STARLINK-4285,1 52991U 22076F   23323.15987865  .00000632  00000-0  57766-4 0  9991,2 52991  53.2176 281.8961 0001414  91.6075 268.5079 15.08846558 76139,6917.86,95.437,540.704,538.747,0.0
52991.0,STARLINK-4285,PAYLOAD,2023-11-19 21:19:27,15.08847273,0.0001695,53.2175,278.6251,92.8384,267.2802,4.9566e-05,5.01e-06,0.0,0 STARLINK-4285,1 52991U 22076F   23323.88851705  .00000501  00000-0  49566-4 0  9998,2 52991  53.2175 278.6251 0001695  92.8384 267.2802 15.08847273 75775,6917.858,95.437,540.896,538.551,0.0
52991.0,STARLINK-4285,PAYLOAD,2023-11-20 06:51:46,15.08857986,0.0001595,53.2167,276.8407,96.657,263.4603,9.4561e-05,1.218e-05,0.0,0 STARLINK-4285,1 52991U 22076F   23324.28594971  .00001218  00000-0  94561-4 0  9993,2 52991  53.2167 276.8407 0001595  96.6570 263.4603 15.08857986 76306,6917.825,95.436,540.794,538.587,0.0
52991.0,STARLINK-4285,PAYLOAD,2023-11-21 03:31:47,15.08843803,0.0001538,53.2167,272.9752,88.9417,271.1752,0.00010673,1.411e-05,0.0,0 STARLINK-4285,1 52991U 22076F   23325.14707728  .00001411  00000-0  10673-3 0  9991,2 52991  53.2167 272.9752 0001538  88.9417 271.1752 15.08843803 76435,6917.869,95.437,540.798,538.67,0.0
52991.0,STARLINK-4285,PAYLOAD,2023-11-21 05:07:10,15.08845185,0.0001581,53.2168,272.6783,88.0934,272.0239,0.00013713,1.895e-05,0.0,0 STARLINK-4285,1 52991U 22076F   23325.21331670  .00001895  00000-0  13713-3 0  9992,2 52991  53.2168 272.6783 0001581  88.0934 272.0239 15.08845185 75973,6917.865,95.437,540.823,538.636,0.0
52991.0,STARLINK-4285,PAYLOAD,2023-11-21 21:01:02,15.08841803,0.0001648,53.2173,269.705,88.3821,271.736,8.0604e-05,9.95e-06,0.0,0 STARLINK-4285,1 52991U 22076F   23325.87571882  .00000995  00000-0  80604-4 0  9999,2 52991  53.2173 269.7050 0001648  88.3821 271.7360 15.08841803 76071,6917.875,95.437,540.88,538.6,0.0
52991.0,STARLINK-4285,PAYLOAD,2023-11-22 03:22:34,15.08849672,0.0001693,53.2168,268.5143,87.5363,272.5823,0.00024035,3.54e-05,0.0,0 STARLINK-4285,1 52991U 22076F   23326.14067468  .00003540  00000-0  24035-3 0  9994,2 52991  53.2168 268.5143 0001693  87.5363 272.5823 15.08849672 76117,6917.851,95.437,540.887,538.545,0.0
